PR-CUNAR 2              
1 49277U 98067SW  22174.85450467  .00111623  00000+0  69148-3 0  9998
2 49277  51.6270 287.3161 0008197 325.1556  34.8906 15.76170561 39722
1998-067TD              
1 51441U 98067TD  22174.78722240  .00043350  00000+0  47930-3 0  9993
2 51441  51.6381 297.4704 0007776 268.9559  91.0544 15.62549539 23169
PATCOOL                 
1 51442U 98067TE  22174.63694911  .00049556  00000+0  54032-3 0  9996
2 51442  51.6368 297.9546 0007962 273.3412  86.6671 15.62846920 23108
DAILI                   
1 51443U 98067TF  22174.71021286  .01918712  31690-2  18727-2 0  9997
2 51443  51.6240 286.3065 0016572 319.2307  40.7466 16.11261037 23227
LIGHT-1                 
1 51509U 98067TG  22174.45557494  .00036570  00000+0  45442-3 0  9991
2 51509  51.6399 300.5128 0008610 258.0937 101.9091 15.59580263 21832
PROGRESS-MS 19          
1 51660U 22014A   22173.55232356  .00003593  00000+0  71353-4 0  9995
2 51660  51.6441 310.0153 0004206 288.1860 167.0419 15.49817104346011
CYGNUS NG-17            
1 51712U 22015A   22173.55232356  .00003593  00000+0  71353-4 0  9994
2 51712  51.6441 310.0153 0004206 288.1860 167.0419 15.49817104346019
SOYUZ-MS 21             
1 52086U 22028A   22173.55232356  .00003593  00000+0  71353-4 0  9993
2 52086  51.6441 310.0153 0004206 288.1860 167.0419 15.49817104346014
IHI-SAT                 
1 52147U 98067TJ  22174.46714815  .00032232  00000+0  44144-3 0  9992
2 52147  51.6384 302.8265 0005106 302.9589  57.0911 15.57079308 14252
KITSUNE                 
1 52148U 98067TK  22174.69280789  .00028591  00000+0  42504-3 0  9997
2 52148  51.6433 302.5630 0004110 291.3462 202.0372 15.54920953 14213
CREW DRAGON 4           
1 52318U 22042A   22173.55232356  .00003593  00000+0  71353-4 0  9997
2 52318  51.6441 310.0153 0004206 288.1860 167.0419 15.49817104346012
ISS DEB                 
1 52329U 98067TM  22173.45634771  .00573414  00000+0  30562-2 0  9994
2 52329  51.6344 305.7091 0018397 301.5233 108.1158 15.78077756  8573
TIANZHOU-4              
1 52509U 22050A   22173.53216527  .00013923  00000+0  16822-3 0  9995
2 52509  41.4704 186.4256 0004330 315.0479 181.3214 15.60445833 65600
PROGRESS-MS 20          
1 52795U 22059A   22173.55232356  .00003593  00000+0  71353-4 0  9994
2 52795  51.6441 310.0153 0004206 288.1860 167.0419 15.49817104346011
SHENZHOU 14             
1 52797U 22060A   22173.53216527  .00013923  00000+0  16822-3 0  9995
2 52797  41.4704 186.4256 0004330 315.0479 181.3214 15.60445833 65609
